{"fetched_at":"2026-03-29T02:12:04Z","count":15717,"tles":[{"name":"STARLINK-1151","line1":"1 45081U 20006AP  26087.58350434  .00077298  00000+0  68840-3 0  9992","line2":"2 45081  53.0522 146.8542 0003945  36.5451 323.5833 15.67806331340084","category":"Starlink"}]}